HORYU-4                 
1 41340U 16012D   20267.15317049  .00000412  00000-0  24433-4 0  9996
2 41340  31.0055  69.5730 0013825  37.7340 322.4263 15.01558787252571
E-ST@R-II               
1 41459U 16025D   20267.82749339  .00000431  00000-0  26172-4 0  9999
2 41459  98.1117  23.0037 0162761 240.4369 118.0553 15.06640720242257
AAUSAT 4                
1 41460U 16025E   20267.61223037  .00001937  00000-0  97679-4 0  9992
2 41460  98.1106  25.4677 0152171 228.6875 130.1266 15.09047816242444
BEESAT-4                
1 41619U 16040W   20267.44649466  .00001248  00000-0  53973-4 0  9998
2 41619  97.3098 324.6232 0010831 185.1233 174.9895 15.24238150224324
CANX-7                  
1 41788U 16059F   20267.60293411  .00005827  00000-0  78174-3 0  9994
2 41788  98.2589 358.0332 0021855 349.6907  10.3854 14.79597745214325
RAVAN                   
1 41849U 16067B   20267.36115329 -.00000239  00000-0 -14728-4 0  9995
2 41849  97.9408  18.9276 0007614 280.7546  79.2818 14.98633014211286
CELTEE 1                
1 41850U 16067C   20267.24687447  .00000498  00000-0  48327-4 0  9996
2 41850  97.9339  16.2423 0007257 283.1354  76.9057 14.97223419211139
OPTICUBE 04             
1 41851U 16067D   20267.46192416  .00000602  00000-0  57689-4 0  9996
2 41851  97.9337  16.0255 0007177 287.6204  72.4233 14.96957222211146
AEROCUBE 8D             
1 41852U 16067E   20267.54517689 -.00000315  00000-0 -22040-4 0  9995
2 41852  97.9340  15.9526 0008267 287.8331  72.1988 14.96960921211137
AEROCUBE 8C             
1 41853U 16067F   20267.24485571  .00000522  00000-0  50802-4 0  9992
2 41853  97.9330  15.5426 0008489 287.7634  72.2660 14.96920322211086
PROMETHEUS 2-1          
1 41854U 16067G   20267.59368742  .00000956  00000-0  87760-4 0  9995
2 41854  97.9350  16.2892 0008453 286.1810  73.8481 14.97272580211157
PROMETHEUS 2-3          
1 41855U 16067H   20267.59351142  .00000967  00000-0  88708-4 0  9997
2 41855  97.9352  16.3265 0008647 286.5377  73.4894 14.97281629211150
INS-1B                  
1 41954U 17008G   20267.44989049  .00001099  00000-0  46864-4 0  9994
2 41954  97.3451 330.0592 0007778 324.4441  35.6278 15.24994371200308
BGUSAT                  
1 41999U 17008BD  20267.20019640  .00001952  00000-0  74451-4 0  9999
2 41999  97.3577 334.5233 0006778 335.6537  24.4382 15.27865158199870
DIDO-2                  
1 42000U 17008BE  20267.43431269  .00000751  00000-0  33277-4 0  9990
2 42000  97.3458 330.5105 0007769 346.4809  13.6220 15.24627294199694
PEASSS                  
1 42015U 17008BV  20267.14054817  .00000944  00000-0  39721-4 0  9998
2 42015  97.3488 332.0263 0005803 354.5034   5.6140 15.25807397200243
AL-FARABI 1             
1 42016U 17008BW  20267.23729798  .00001331  00000-0  53420-4 0  9999
2 42016  97.3519 333.3324 0005574 353.4777   6.6388 15.26704215200441
NAYIF-1 (EO-88)         
1 42017U 17008BX  20267.47551437  .00001328  00000-0  53258-4 0  9994
2 42017  97.3513 333.5769 0005588 352.0352   8.0797 15.26747584200503
UCLSAT                  
1 42765U 17036A   20267.40750731  .00001088  00000-0  48089-4 0  9995
2 42765  97.2909 318.9757 0012407  47.5710 312.6575 15.23723641181496
LITUANICASAT-2          
1 42768U 17036D   20267.41093890  .00001933  00000-0  81487-4 0  9993
2 42768  97.2970 319.1157 0015356  36.6711 323.5574 15.24407299180768
AALTO-1                 
1 42775U 17036L   20267.09040717  .00000579  00000-0  28270-4 0  9991
2 42775  97.2884 316.2036 0014852  42.0461 318.1913 15.21971892180520
URSA MAIOR              
1 42776U 17036M   20267.13337764  .00000663  00000-0  31773-4 0  9994
2 42776  97.2896 316.5729 0014645  41.7376 318.4975 15.22166093180540
COMPASS 2               
1 42777U 17036N   20267.11649231  .00001377  00000-0  59267-4 0  9999
2 42777  97.2957 319.2071 0013117  39.8374 320.3824 15.24192389180676
DIAMOND RED             
1 42783U 17036U   20267.38163633  .00000846  00000-0  38837-4 0  9992
2 42783  97.2909 318.1155 0013176  49.5437 310.6946 15.23000906180651
PEGASUS                 
1 42784U 17036V   20267.45303030  .00000975  00000-0  43810-4 0  9998
2 42784  97.2914 318.6695 0012994  48.1596 312.0748 15.23402289180690
DIAMOND GREEN           
1 42785U 17036W   20267.11768122  .00000801  00000-0  36925-4 0  9996
2 42785  97.2912 317.8979 0013119  51.0133 309.2270 15.22995813180603
DIAMOND BLUE            
1 42786U 17036X   20267.37963049  .00000868  00000-0  39782-4 0  9997
2 42786  97.2911 318.1468 0012945  50.4643 309.7735 15.23001110180649
NUDTSAT                 
1 42787U 17036Y   20267.55424776  .00001393  00000-0  58855-4 0  9993
2 42787  97.2964 320.3995 0012847  39.2725 320.9440 15.24807123180642
SUCHAI                  
1 42788U 17036Z   20267.44083072  .00001171  00000-0  51151-4 0  9998
2 42788  97.2923 319.3395 0012479  46.7529 313.4748 15.23987638180801
SKCUBE                  
1 42789U 17036AA  20267.10353395  .00001012  00000-0  44819-4 0  9997
2 42789  97.2918 318.8330 0012406  48.1670 312.0625 15.23813081180665
VZLUSAT-1               
1 42790U 17036AB  20267.41301401  .00001520  00000-0  64019-4 0  9992
2 42790  97.2944 320.2539 0011780  45.0981 315.1211 15.24787645180773
ROBUSTA-1B              
1 42792U 17036AD  20267.11059130  .00001067  00000-0  46832-4 0  9999
2 42792  97.2920 319.1224 0011994  48.6641 311.5627 15.24013339180690
CICERO 6                
1 42793U 17036AE  20267.40426623  .00000764  00000-0  35082-4 0  9995
2 42793  97.2894 318.6835 0011398  50.6913 309.5333 15.23291937180777
D-SAT                   
1 42794U 17036AF  20267.80701917  .00000159  00000-0  18955-4 0  9990
2 42794  97.4872 295.5588 0127032  37.3168 323.6792 14.91321886177358
CORVUS BC2              
1 42846U 17042X   20267.41589170  .00000301  00000-0  34801-4 0  9994
2 42846  97.5076 146.4823 0008555 318.6693  41.3879 14.92138675174018
CORVUS BC1              
1 42847U 17042Y   20267.40492341  .00000224  00000-0  27204-4 0  9990
2 42847  97.5079 146.6593 0008162 318.2100  41.8496 14.92240262174017
MIRATA                  
1 43015U 17073C   20267.45578643  .00000966  00000-0  78826-4 0  9996
2 43015  97.7117 175.9269 0254256  88.8085 274.2242 14.79795892153718
MAKERSAT 0              
1 43016U 17073D   20267.24432216  .00000648  00000-0  54623-4 0  9995
2 43016  97.7153 175.8829 0257161  90.8103 272.2580 14.79321037153665
DELLINGR (RBLE)         
1 43021U 98067NJ  20267.08014144  .00016978  00000-0  12397-3 0  9995
2 43021  51.6344 139.9965 0001993 103.7177 256.4044 15.73384070162221
AEROCUBE 7B (OCSD B)    
1 43042U 17071F   20267.36457898  .00003330  00000-0  80274-4 0  9990
2 43042  51.6375 305.8937 0004951  47.7219 312.4186 15.44254928157503
AEROCUBE 7C (OCSD C)    
1 43043U 17071G   20267.49902854  .00003321  00000-0  80137-4 0  9990
2 43043  51.6375 305.3067 0005205  51.6072 308.5381 15.44230195157498
CHEFSAT                 
1 43044U 17071H   20267.48452057  .00007611  00000-0  14239-3 0  9990
2 43044  51.6369 286.7773 0005084  57.4932 302.6547 15.49755278157748
ASGARDIA 1              
1 43049U 17071N   20267.55564939  .00003114  00000-0  75690-4 0  9999
2 43049  51.6386 304.2706 0002966  66.2358 293.8939 15.44236976157515
ISARA                   
1 43050U 17071P   20267.53684454  .00006860  00000-0  13470-3 0  9992
2 43050  51.6351 289.9789 0003028  65.7731 294.3573 15.48533940157704
PROPCUBE 2 (FAUNA)      
1 43052U 17071R   20267.38210978  .00003387  00000-0  80185-4 0  9992
2 43052  51.6381 303.1273 0002952  63.3805 296.7484 15.44741057157508
CORVUS BC3              
1 43118U 18004H   20267.22952739  .00000734  00000-0  33696-4 0  9991
2 43118  97.4358 336.6693 0011889  72.6329 287.6207 15.23499063149881
MICROMAS-2A             
1 43131U 18004W   20267.45357381  .00001668  00000-0  68506-4 0  9998
2 43131  97.4414 338.9861 0010611  70.6789 289.5596 15.25584436150033
SPACEBEE-4              
1 43139U 18004AE  20267.26946068  .00002568  00000-0  99571-4 0  9997
2 43139  97.4450 340.2334 0009929  72.3765 287.8558 15.27010869150074
SPACEBEE-3              
1 43140U 18004AF  20267.15314235  .00002978  00000-0  11163-3 0  9997
2 43140  97.4470 340.9672 0009530  71.3235 288.9038 15.28015629150119
SPACEBEE-2              
1 43141U 18004AG  20267.50493680  .00003543  00000-0  13091-3 0  9990
2 43141  97.4483 341.6434 0009436  69.6111 290.6141 15.28362016150183
SPACEBEE-1              
1 43142U 18004AH  20267.44854293  .00003783  00000-0  13789-3 0  9995
2 43142  97.4488 341.9095 0009391  69.6266 290.5982 15.28763514150186
CICERO 7                
1 43143U 18004AJ  20267.45301696  .00001512  00000-0  62355-4 0  9993
2 43143  97.4391 339.1436 0008963  79.1812 281.0434 15.25599020150054
GOMX-4B                 
1 43196U 18015E   20267.62256964  .00000383  00000-0  18506-4 0  9993
2 43196  97.4510  35.4880 0020105 116.3188 244.0117 15.24442793146859
GOMX-4A                 
1 43197U 18015F   20267.83270265  .00000642  00000-0  28834-4 0  9990
2 43197  97.4507  35.8204 0020375 116.6101 346.7367 15.24638620146906
UBAKUSAT                
1 43467U 98067NQ  20267.06130774  .00046640  00000-0  23124-3 0  9994
2 43467  51.6329 137.4207 0001866 137.5538 222.5609 15.81510931135525
CUBERRT                 
1 43546U 98067NU  20267.37041305  .00019111  00000-0  10879-3 0  9993
2 43546  51.6314 137.2822 0001944 128.4800 231.6376 15.79001484125689
TEMPEST-D               
1 43547U 98067NV  20267.22486490  .00006187  00000-0  70338-4 0  9992
2 43547  51.6354 177.8221 0005365  69.5928 290.5642 15.63823635124811
RAINCUBE                
1 43548U 98067NW  20267.10563719  .00049359  00000-0  25485-3 0  9990
2 43548  51.6290 145.9395 0004137 127.3245 232.8134 15.80596056125673
HALOSAT                 
1 43549U 98067NX  20267.11306202  .00047046  00000-0  26001-3 0  9990
2 43549  51.6332 147.6236 0004275 128.7315 231.4069 15.79118873125217
